{
  "type": "FeatureCollection",
  "features": [
    {
      "type": "Feature",
      "properties": {
        "name": "برج میلاد",
        "city": "تهران"
      },
      "geometry": {
        "type": "Point",
        "coordinates": [51.3756, 35.7448]
      }
    },
    {
      "type": "Feature",
      "properties": {
        "name": "میدان نقش جهان",
        "city": "اصفهان"
      },
      "geometry": {
        "type": "Point",
        "coordinates": [51.6776, 32.6573]
      }
    },
    {
      "type": "Feature",
      "properties": {
        "name": "حافظیه",
        "city": "شیراز"
      },
      "geometry": {
        "type": "Point",
        "coordinates": [52.5511, 29.6219]
      }
    }
  ]
}